[{"OBJECT_NAME":"ONEWEB-0564","OBJECT_ID":"2023-029F","EPOCH":"2025-08-04T18:34:59.351520","MEAN_MOTION":13.20771642,"ECCENTRICITY":0.0002077,"INCLINATION":87.9286,"RA_OF_ASC_NODE":337.5214,"ARG_OF_PERICENTER":111.0029,"MEAN_ANOMALY":249.1326,"EPHEMERIS_TYPE":0,"CLASSIFICATION_TYPE":"U","NORAD_CAT_ID":55801,"ELEMENT_SET_NO":999,"REV_AT_EPOCH":11938,"BSTAR":2.3241e-8,"MEAN_MOTION_DOT":1.3e-7,"MEAN_MOTION_DDOT":0},{"OBJECT_NAME":"ONEWEB-0638","OBJECT_ID":"2023-029G","EPOCH":"2025-08-04T10:31:36.816384","MEAN_MOTION":13.14503685,"ECCENTRICITY":0.0002316,"INCLINATION":87.9077,"RA_OF_ASC_NODE":352.7985,"ARG_OF_PERICENTER":104.061,"MEAN_ANOMALY":256.0777,"EPHEMERIS_TYPE":0,"CLASSIFICATION_TYPE":"U","NORAD_CAT_ID":55802,"ELEMENT_SET_NO":999,"REV_AT_EPOCH":11778,"BSTAR":0.00064135,"MEAN_MOTION_DOT":2.51e-6,"MEAN_MOTION_DDOT":0},{"OBJECT_NAME":"ONEWEB-0639","OBJECT_ID":"2023-029H","EPOCH":"2025-08-04T10:06:12.235680","MEAN_MOTION":13.19724796,"ECCENTRICITY":0.0002446,"INCLINATION":87.9244,"RA_OF_ASC_NODE":7.9544,"ARG_OF_PERICENTER":68.2697,"MEAN_ANOMALY":291.8696,"EPHEMERIS_TYPE":0,"CLASSIFICATION_TYPE":"U","NORAD_CAT_ID":55803,"ELEMENT_SET_NO":999,"REV_AT_EPOCH":11712,"BSTAR":-3.5575e-5,"MEAN_MOTION_DOT":-1.0e-8,"MEAN_MOTION_DDOT":0},{"OBJECT_NAME":"ONEWEB-0640","OBJECT_ID":"2023-029J","EPOCH":"2025-08-04T16:14:07.428768","MEAN_MOTION":13.14503754,"ECCENTRICITY":0.000257,"INCLINATION":87.9074,"RA_OF_ASC_NODE":352.7382,"ARG_OF_PERICENTER":95.6537,"MEAN_ANOMALY":264.4886,"EPHEMERIS_TYPE":0,"CLASSIFICATION_TYPE":"U","NORAD_CAT_ID":55804,"ELEMENT_SET_NO":999,"REV_AT_EPOCH":11783,"BSTAR":0.00060855,"MEAN_MOTION_DOT":2.38e-6,"MEAN_MOTION_DDOT":0},{"OBJECT_NAME":"ONEWEB-0641","OBJECT_ID":"2023-029K","EPOCH":"2025-08-04T17:16:05.518848","MEAN_MOTION":13.19724597,"ECCENTRICITY":0.0001887,"INCLINATION":87.9244,"RA_OF_ASC_NODE":7.8666,"ARG_OF_PERICENTER":87.8209,"MEAN_ANOMALY":272.314,"EPHEMERIS_TYPE":0,"CLASSIFICATION_TYPE":"U","NORAD_CAT_ID":55805,"ELEMENT_SET_NO":999,"REV_AT_EPOCH":11717,"BSTAR":3.7587e-5,"MEAN_MOTION_DOT":2.8e-7,"MEAN_MOTION_DDOT":0},{"OBJECT_NAME":"ONEWEB-0642","OBJECT_ID":"2023-029L","EPOCH":"2025-08-04T17:09:16.985952","MEAN_MOTION":13.19726192,"ECCENTRICITY":0.0002035,"INCLINATION":87.9238,"RA_OF_ASC_NODE":7.9046,"ARG_OF_PERICENTER":67.3728,"MEAN_ANOMALY":292.7619,"EPHEMERIS_TYPE":0,"CLASSIFICATION_TYPE":"U","NORAD_CAT_ID":55806,"ELEMENT_SET_NO":999,"REV_AT_EPOCH":11716,"BSTAR":-8.8166e-5,"MEAN_MOTION_DOT":-2.2e-7,"MEAN_MOTION_DDOT":0},{"OBJECT_NAME":"ONEWEB-0643","OBJECT_ID":"2023-029M","EPOCH":"2025-08-04T19:09:56.982816","MEAN_MOTION":13.145042,"ECCENTRICITY":0.0001599,"INCLINATION":87.9074,"RA_OF_ASC_NODE":352.6967,"ARG_OF_PERICENTER":73.0976,"MEAN_ANOMALY":287.0329,"EPHEMERIS_TYPE":0,"CLASSIFICATION_TYPE":"U","NORAD_CAT_ID":55807,"ELEMENT_SET_NO":999,"REV_AT_EPOCH":11782,"BSTAR":-0.0005437,"MEAN_MOTION_DOT":-1.89e-6,"MEAN_MOTION_DDOT":0},{"OBJECT_NAME":"ONEWEB-0644","OBJECT_ID":"2023-029N","EPOCH":"2025-08-04T17:02:27.026592","MEAN_MOTION":13.19726234,"ECCENTRICITY":0.0001923,"INCLINATION":87.9243,"RA_OF_ASC_NODE":7.9115,"ARG_OF_PERICENTER":79.3298,"MEAN_ANOMALY":280.8051,"EPHEMERIS_TYPE":0,"CLASSIFICATION_TYPE":"U","NORAD_CAT_ID":55808,"ELEMENT_SET_NO":999,"REV_AT_EPOCH":11716,"BSTAR":0.00010143,"MEAN_MOTION_DOT":5.4e-7,"MEAN_MOTION_DDOT":0},{"OBJECT_NAME":"ONEWEB-0645","OBJECT_ID":"2023-029P","EPOCH":"2025-08-04T16:56:46.086144","MEAN_MOTION":13.19725088,"ECCENTRICITY":0.0002147,"INCLINATION":87.9225,"RA_OF_ASC_NODE":7.9033,"ARG_OF_PERICENTER":90.3135,"MEAN_ANOMALY":269.8244,"EPHEMERIS_TYPE":0,"CLASSIFICATION_TYPE":"U","NORAD_CAT_ID":55809,"ELEMENT_SET_NO":999,"REV_AT_EPOCH":11716,"BSTAR":-1.1852e-5,"MEAN_MOTION_DOT":8.0e-8,"MEAN_MOTION_DDOT":0},{"OBJECT_NAME":"ONEWEB-0646","OBJECT_ID":"2023-029Q","EPOCH":"2025-08-04T21:18:20.757600","MEAN_MOTION":13.19725388,"ECCENTRICITY":0.0001731,"INCLINATION":87.9229,"RA_OF_ASC_NODE":7.8588,"ARG_OF_PERICENTER":87.2897,"MEAN_ANOMALY":272.8434,"EPHEMERIS_TYPE":0,"CLASSIFICATION_TYPE":"U","NORAD_CAT_ID":55810,"ELEMENT_SET_NO":999,"REV_AT_EPOCH":11717,"BSTAR":1.5053e-5,"MEAN_MOTION_DOT":1.9e-7,"MEAN_MOTION_DDOT":0},{"OBJECT_NAME":"ONEWEB-0648","OBJECT_ID":"2023-029R","EPOCH":"2025-08-04T14:45:05.687424","MEAN_MOTION":13.14501893,"ECCENTRICITY":0.0002428,"INCLINATION":87.9071,"RA_OF_ASC_NODE":352.7085,"ARG_OF_PERICENTER":76.7674,"MEAN_ANOMALY":283.3727,"EPHEMERIS_TYPE":0,"CLASSIFICATION_TYPE":"U","NORAD_CAT_ID":55811,"ELEMENT_SET_NO":999,"REV_AT_EPOCH":11780,"BSTAR":0.00018737,"MEAN_MOTION_DOT":8.2e-7,"MEAN_MOTION_DDOT":0},{"OBJECT_NAME":"ONEWEB-0649","OBJECT_ID":"2023-029S","EPOCH":"2025-08-04T20:24:52.644384","MEAN_MOTION":13.19724268,"ECCENTRICITY":0.0002107,"INCLINATION":87.9237,"RA_OF_ASC_NODE":7.8597,"ARG_OF_PERICENTER":83.0705,"MEAN_ANOMALY":277.0667,"EPHEMERIS_TYPE":0,"CLASSIFICATION_TYPE":"U","NORAD_CAT_ID":55812,"ELEMENT_SET_NO":999,"REV_AT_EPOCH":11720,"BSTAR":8.5472e-5,"MEAN_MOTION_DOT":4.7e-7,"MEAN_MOTION_DDOT":0},{"OBJECT_NAME":"ONEWEB-0650","OBJECT_ID":"2023-029T","EPOCH":"2025-08-04T16:39:41.900544","MEAN_MOTION":13.1972436,"ECCENTRICITY":0.0001845,"INCLINATION":87.924,"RA_OF_ASC_NODE":7.9016,"ARG_OF_PERICENTER":88.0643,"MEAN_ANOMALY":272.0701,"EPHEMERIS_TYPE":0,"CLASSIFICATION_TYPE":"U","NORAD_CAT_ID":55813,"ELEMENT_SET_NO":999,"REV_AT_EPOCH":11715,"BSTAR":5.129e-5,"MEAN_MOTION_DOT":3.3e-7,"MEAN_MOTION_DDOT":0},{"OBJECT_NAME":"ONEWEB-0652","OBJECT_ID":"2023-029U","EPOCH":"2025-08-05T03:04:55.281504","MEAN_MOTION":13.14504681,"ECCENTRICITY":0.0001779,"INCLINATION":87.9077,"RA_OF_ASC_NODE":352.6172,"ARG_OF_PERICENTER":102.7146,"MEAN_ANOMALY":257.4182,"EPHEMERIS_TYPE":0,"CLASSIFICATION_TYPE":"U","NORAD_CAT_ID":55814,"ELEMENT_SET_NO":999,"REV_AT_EPOCH":11853,"BSTAR":0.00055225,"MEAN_MOTION_DOT":2.18e-6,"MEAN_MOTION_DDOT":0},{"OBJECT_NAME":"ONEWEB-0653","OBJECT_ID":"2023-029V","EPOCH":"2025-08-04T19:23:40.534656","MEAN_MOTION":13.1450219,"ECCENTRICITY":0.0002073,"INCLINATION":87.907,"RA_OF_ASC_NODE":352.6705,"ARG_OF_PERICENTER":102.5039,"MEAN_ANOMALY":257.6323,"EPHEMERIS_TYPE":0,"CLASSIFICATION_TYPE":"U","NORAD_CAT_ID":55815,"ELEMENT_SET_NO":999,"REV_AT_EPOCH":11783,"BSTAR":-0.00022758,"MEAN_MOTION_DOT":-7.2e-7,"MEAN_MOTION_DDOT":0},{"OBJECT_NAME":"ONEWEB-0654","OBJECT_ID":"2023-029W","EPOCH":"2025-08-05T04:24:51.863040","MEAN_MOTION":13.14502198,"ECCENTRICITY":0.0001885,"INCLINATION":87.9068,"RA_OF_ASC_NODE":352.5949,"ARG_OF_PERICENTER":110.2102,"MEAN_ANOMALY":249.923,"EPHEMERIS_TYPE":0,"CLASSIFICATION_TYPE":"U","NORAD_CAT_ID":55816,"ELEMENT_SET_NO":999,"REV_AT_EPOCH":11859,"BSTAR":-0.00027519,"MEAN_MOTION_DOT":-8.9e-7,"MEAN_MOTION_DDOT":0},{"OBJECT_NAME":"ONEWEB-0656","OBJECT_ID":"2023-029X","EPOCH":"2025-08-05T01:42:14.329152","MEAN_MOTION":13.20770232,"ECCENTRICITY":0.0001956,"INCLINATION":87.9296,"RA_OF_ASC_NODE":337.4062,"ARG_OF_PERICENTER":113.0814,"MEAN_ANOMALY":247.0525,"EPHEMERIS_TYPE":0,"CLASSIFICATION_TYPE":"U","NORAD_CAT_ID":55817,"ELEMENT_SET_NO":999,"REV_AT_EPOCH":12010,"BSTAR":-2.3255e-6,"MEAN_MOTION_DOT":1.2e-7,"MEAN_MOTION_DDOT":0}]
