ONEWEB-0564             
1 55801U 23029F   25216.77429805  .00000013  00000+0  23241-7 0  9995
2 55801  87.9286 337.5214 0002077 111.0029 249.1326 13.20771642119388
ONEWEB-0638             
1 55802U 23029G   25216.43862056  .00000251  00000+0  64135-3 0  9995
2 55802  87.9077 352.7985 0002316 104.0610 256.0777 13.14503685117787
ONEWEB-0639             
1 55803U 23029H   25216.42097495 -.00000001  00000+0 -35575-4 0  9994
2 55803  87.9244   7.9544 0002446  68.2697 291.8696 13.19724796117122
ONEWEB-0640             
1 55804U 23029J   25216.67647487  .00000238  00000+0  60855-3 0  9992
2 55804  87.9074 352.7382 0002570  95.6537 264.4886 13.14503754117839
ONEWEB-0641             
1 55805U 23029K   25216.71950832  .00000028  00000+0  37587-4 0  9993
2 55805  87.9244   7.8666 0001887  87.8209 272.3140 13.19724597117174
ONEWEB-0642             
1 55806U 23029L   25216.71477993 -.00000022  00000+0 -88166-4 0  9991
2 55806  87.9238   7.9046 0002035  67.3728 292.7619 13.19726192117165
ONEWEB-0643             
1 55807U 23029M   25216.79857619 -.00000189  00000+0 -54370-3 0  9990
2 55807  87.9074 352.6967 0001599  73.0976 287.0329 13.14504200117826
ONEWEB-0644             
1 55808U 23029N   25216.71003503  .00000054  00000+0  10143-3 0  9997
2 55808  87.9243   7.9115 0001923  79.3298 280.8051 13.19726234117165
ONEWEB-0645             
1 55809U 23029P   25216.70608896  .00000008  00000+0 -11852-4 0  9992
2 55809  87.9225   7.9033 0002147  90.3135 269.8244 13.19725088117164
ONEWEB-0646             
1 55810U 23029Q   25216.88774025  .00000019  00000+0  15053-4 0  9999
2 55810  87.9229   7.8588 0001731  87.2897 272.8434 13.19725388117171
ONEWEB-0648             
1 55811U 23029R   25216.61464916  .00000082  00000+0  18737-3 0  9997
2 55811  87.9071 352.7085 0002428  76.7674 283.3727 13.14501893117801
ONEWEB-0649             
1 55812U 23029S   25216.85060931  .00000047  00000+0  85472-4 0  9995
2 55812  87.9237   7.8597 0002107  83.0705 277.0667 13.19724268117207
ONEWEB-0650             
1 55813U 23029T   25216.69423496  .00000033  00000+0  51290-4 0  9993
2 55813  87.9240   7.9016 0001845  88.0643 272.0701 13.19724360117154
ONEWEB-0652             
1 55814U 23029U   25217.12841761  .00000218  00000+0  55225-3 0  9998
2 55814  87.9077 352.6172 0001779 102.7146 257.4182 13.14504681118534
ONEWEB-0653             
1 55815U 23029V   25216.80810804 -.00000072  00000+0 -22758-3 0  9992
2 55815  87.9070 352.6705 0002073 102.5039 257.6323 13.14502190117831
ONEWEB-0654             
1 55816U 23029W   25217.18393360 -.00000089  00000+0 -27519-3 0  9996
2 55816  87.9068 352.5949 0001885 110.2102 249.9230 13.14502198118598
ONEWEB-0656             
1 55817U 23029X   25217.07099918  .00000012  00000+0 -23255-5 0  9997
2 55817  87.9296 337.4062 0001956 113.0814 247.0525 13.20770232120109
